CORVUS BC4              
1 43767U 18099K   26068.65923737  .00005714  00000+0  33980-3 0  9990
2 43767  97.4206 114.5457 0008046 356.5821   3.5354 15.11615710397368
STARLINK-5166           
1 54085U 22136AL  26068.88906061 -.00003891  00000+0 -22637-3 0  9991
2 54085  53.2185 333.2592 0001207  90.1268 269.9862 15.08860719187015
